TRANSPORTER-12 OBJECT AZ
1 62656U 25009AZ  26068.71026235  .00016057  00000+0  54903-3 0  9991
2 62656  97.3981 151.9913 0000987  45.3581 314.7740 15.30349724 63792
STARLINK-35907          
1 66498U 25263P   26068.14666816  .00038614  00000+0  14046-2 0  9999
2 66498  42.9992 353.9595 0000409 309.0303  51.0512 15.27597703 18818
